start=new Date('2023-02-13T00:00:00.000Z').valueOf();
sats=[{"ECCENTRICITY":"0.00000930","RA_OF_ASC_NODE":"26.6950","SEMIMAJOR_AXIS":"6917.744","COUNTRY_CODE":"US","OBJECT_NAME":"STARLINK-4080","FILE":"3788079","TLE_LINE2":"2 52835  53.2173  26.6950 0000093  71.4034 288.6969 15.08884772 36541","APOAPSIS":"539.673","OBJECT_ID":"2022-062F","RCS_SIZE":"LARGE","SITE":"AFETR","MEAN_ANOMALY":"288.6969","MEAN_ELEMENT_THEORY":"SGP4","DECAY_DATE":null,"REF_FRAME":"TEME","OBJECT_TYPE":"PAYLOAD","CENTER_NAME":"EARTH","LAUNCH_DATE":"2022-06-17","NORAD_CAT_ID":"52835","MEAN_MOTION_DOT":"0.00025911","ELEMENT_SET_NO":"999","PERIOD":"95.435","REV_AT_EPOCH":"3654","BSTAR":"0.00163810000000","PERIAPSIS":"539.544","MEAN_MOTION":"15.08884772","EPHEMERIS_TYPE":"0","ARG_OF_PERICENTER":"71.4034","CLASSIFICATION_TYPE":"U","INCLINATION":"53.2173","GP_ID":"225274549","TIME_SYSTEM":"UTC","EPOCH":"2023-02-12T15:27:42.664320","MEAN_MOTION_DDOT":"0.0000000000000","TLE_LINE1":"1 52835U 22062F   23043.64424380  .00025911  00000-0  16381-2 0  9997"},{"ECCENTRICITY":"0.00015070","RA_OF_ASC_NODE":"26.7139","OBJECT_NAME":"STARLINK-4043","COUNTRY_CODE":"US","FILE":"3788079","TLE_LINE2":"2 52836  53.2154  26.7139 0001507  94.7727 265.3437 15.08833027 36548","APOAPSIS":"540.809","SEMIMAJOR_AXIS":"6917.902","RCS_SIZE":"LARGE","OBJECT_ID":"2022-062G","MEAN_ELEMENT_THEORY":"SGP4","MEAN_ANOMALY":"265.3437","SITE":"AFETR","LAUNCH_DATE":"2022-06-17","CENTER_NAME":"EARTH","NORAD_CAT_ID":"52836","MEAN_MOTION_DOT":"0.00000430","REF_FRAME":"TEME","DECAY_DATE":null,"OBJECT_TYPE":"PAYLOAD","PERIOD":"95.438","REV_AT_EPOCH":"3654","BSTAR":"0.00004510600000","ELEMENT_SET_NO":"999","INCLINATION":"53.2154","GP_ID":"225274548","TIME_SYSTEM":"UTC","PERIAPSIS":"538.724","MEAN_MOTION":"15.08833027","ARG_OF_PERICENTER":"94.7727","EPHEMERIS_TYPE":"0","CLASSIFICATION_TYPE":"U","TLE_LINE1":"1 52836U 22062G   23043.64057236  .00000430  00000-0  45106-4 0  9998","EPOCH":"2023-02-12T15:22:25.451904","MEAN_MOTION_DDOT":"0.0000000000000"},{"EPOCH":"2023-02-12T05:39:30.415680","MEAN_MOTION_DDOT":"0.0000000000000","TLE_LINE1":"1 52837U 22062H   23043.23576870  .00029126  00000-0  18399-2 0  9999","MEAN_MOTION":"15.08852636","PERIAPSIS":"538.147","CLASSIFICATION_TYPE":"U","ARG_OF_PERICENTER":"89.0529","EPHEMERIS_TYPE":"0","INCLINATION":"53.2146","GP_ID":"225236482","TIME_SYSTEM":"UTC","ELEMENT_SET_NO":"999","PERIOD":"95.437","BSTAR":"0.00183990000000","REV_AT_EPOCH":"3648","OBJECT_TYPE":"PAYLOAD","REF_FRAME":"TEME","DECAY_DATE":null,"LAUNCH_DATE":"2022-06-17","CENTER_NAME":"EARTH","NORAD_CAT_ID":"52837","MEAN_MOTION_DOT":"0.00029126","MEAN_ANOMALY":"271.0722","SITE":"AFETR","MEAN_ELEMENT_THEORY":"SGP4","OBJECT_ID":"2022-062H","RCS_SIZE":"LARGE","SEMIMAJOR_AXIS":"6917.842","FILE":"3787692","COUNTRY_CODE":"US","OBJECT_NAME":"STARLINK-4036","APOAPSIS":"541.266","TLE_LINE2":"2 52837  53.2146  28.5278 0002254  89.0529 271.0722 15.08852636 36482","ECCENTRICITY":"0.00022540","RA_OF_ASC_NODE":"28.5278"},{"BSTAR":"0.00141210000000","REV_AT_EPOCH":"3703","PERIOD":"95.431","ELEMENT_SET_NO":"999","MEAN_MOTION_DOT":"0.00022320","NORAD_CAT_ID":"52838","LAUNCH_DATE":"2022-06-17","CENTER_NAME":"EARTH","OBJECT_TYPE":"PAYLOAD","DECAY_DATE":null,"REF_FRAME":"TEME","TLE_LINE1":"1 52838U 22062J   23043.63779273  .00022320  00000-0  14121-2 0  9994","MEAN_MOTION_DDOT":"0.0000000000000","EPOCH":"2023-02-12T15:18:25.291872","TIME_SYSTEM":"UTC","GP_ID":"225274541","INCLINATION":"53.2158","CLASSIFICATION_TYPE":"U","ARG_OF_PERICENTER":"72.4305","EPHEMERIS_TYPE":"0","MEAN_MOTION":"15.08941651","PERIAPSIS":"538.376","APOAPSIS":"540.493","TLE_LINE2":"2 52838  53.2158  26.7241 0001530  72.4305 287.6854 15.08941651 37037","FILE":"3788079","OBJECT_NAME":"STARLINK-4092","COUNTRY_CODE":"US","SEMIMAJOR_AXIS":"6917.570","RA_OF_ASC_NODE":"26.7241","ECCENTRICITY":"0.00015300","MEAN_ELEMENT_THEORY":"SGP4","SITE":"AFETR","MEAN_ANOMALY":"287.6854","RCS_SIZE":"LARGE","OBJECT_ID":"2022-062J"},{"MEAN_ELEMENT_THEORY":"SGP4","SITE":"AFETR","MEAN_ANOMALY":"285.4296","RCS_SIZE":"LARGE","OBJECT_ID":"2022-062K","TLE_LINE2":"2 52839  53.2156  28.5624 0001329  74.6843 285.4296 15.08839148 36489","APOAPSIS":"540.667","COUNTRY_CODE":"US","OBJECT_NAME":"STARLINK-4048","FILE":"3787692","SEMIMAJOR_AXIS":"6917.883","RA_OF_ASC_NODE":"28.5624","ECCENTRICITY":"0.00013290","TLE_LINE1":"1 52839U 22062K   23043.22841127  .00022827  00000-0  14477-2 0  9994","MEAN_MOTION_DDOT":"0.0000000000000","EPOCH":"2023-02-12T05:28:54.733728","GP_ID":"225236972","TIME_SYSTEM":"UTC","INCLINATION":"53.2156","ARG_OF_PERICENTER":"74.6843","EPHEMERIS_TYPE":"0","CLASSIFICATION_TYPE":"U","PERIAPSIS":"538.829","MEAN_MOTION":"15.08839148","REV_AT_EPOCH":"3648","BSTAR":"0.00144770000000","PERIOD":"95.438","ELEMENT_SET_NO":"999","NORAD_CAT_ID":"52839","MEAN_MOTION_DOT":"0.00022827","LAUNCH_DATE":"2022-06-17","CENTER_NAME":"EARTH","REF_FRAME":"TEME","DECAY_DATE":null,"OBJECT_TYPE":"PAYLOAD"},{"ECCENTRICITY":"0.00011140","RA_OF_ASC_NODE":"27.0557","SEMIMAJOR_AXIS":"6917.935","COUNTRY_CODE":"US","OBJECT_NAME":"STARLINK-4049","FILE":"3788080","TLE_LINE2":"2 52840  53.2161  27.0557 0001114  88.3746 271.7374 15.08822019 37027","APOAPSIS":"540.571","OBJECT_ID":"2022-062L","RCS_SIZE":"LARGE","MEAN_ANOMALY":"271.7374","SITE":"AFETR","MEAN_ELEMENT_THEORY":"SGP4","DECAY_DATE":null,"REF_FRAME":"TEME","OBJECT_TYPE":"PAYLOAD","CENTER_NAME":"EARTH","LAUNCH_DATE":"2022-06-17","MEAN_MOTION_DOT":"0.00003108","NORAD_CAT_ID":"52840","ELEMENT_SET_NO":"999","PERIOD":"95.439","REV_AT_EPOCH":"3702","BSTAR":"0.00021339000000","PERIAPSIS":"539.030","MEAN_MOTION":"15.08822019","EPHEMERIS_TYPE":"0","ARG_OF_PERICENTER":"88.3746","CLASSIFICATION_TYPE":"U","INCLINATION":"53.2161","GP_ID":"225274285","TIME_SYSTEM":"UTC","EPOCH":"2023-02-12T13:31:08.376096","MEAN_MOTION_DDOT":"0.0000000000000","TLE_LINE1":"1 52840U 22062L   23043.56329139  .00003108  00000-0  21339-3 0  9994"},{"TLE_LINE1":"1 52841U 22062M   23043.34986003  .00032653  00000-0  20602-2 0  9998","MEAN_MOTION_DDOT":"0.0000000000000","EPOCH":"2023-02-12T08:23:47.906592","GP_ID":"225235984","TIME_SYSTEM":"UTC","INCLINATION":"53.2145","CLASSIFICATION_TYPE":"U","EPHEMERIS_TYPE":"0","ARG_OF_PERICENTER":"83.0399","MEAN_MOTION":"15.08840714","PERIAPSIS":"538.582","BSTAR":"0.00206020000000","REV_AT_EPOCH":"3650","PERIOD":"95.438","ELEMENT_SET_NO":"999","NORAD_CAT_ID":"52841","MEAN_MOTION_DOT":"0.00032653","CENTER_NAME":"EARTH","LAUNCH_DATE":"2022-06-17","OBJECT_TYPE":"PAYLOAD","REF_FRAME":"TEME","DECAY_DATE":null,"MEAN_ELEMENT_THEORY":"SGP4","MEAN_ANOMALY":"277.0784","SITE":"AFETR","RCS_SIZE":"LARGE","OBJECT_ID":"2022-062M","APOAPSIS":"540.904","TLE_LINE2":"2 52841  53.2145  28.0180 0001678  83.0399 277.0784 15.08840714 36502","FILE":"3787692","OBJECT_NAME":"STARLINK-4065","COUNTRY_CODE":"US","SEMIMAJOR_AXIS":"6917.878","RA_OF_ASC_NODE":"28.0180","ECCENTRICITY":"0.00016780"},{"MEAN_ELEMENT_THEORY":"SGP4","MEAN_ANOMALY":"278.2617","SITE":"AFETR","RCS_SIZE":"LARGE","OBJECT_ID":"2022-062N","COUNTRY_CODE":"US","OBJECT_NAME":"STARLINK-4046","FILE":"3787692","TLE_LINE2":"2 52842  53.2156  27.9208 0001219  81.8513 278.2617 15.08855203 36506","APOAPSIS":"540.542","SEMIMAJOR_AXIS":"6917.834","ECCENTRICITY":"0.00012190","RA_OF_ASC_NODE":"27.9208","TLE_LINE1":"1 52842U 22062N   23043.37192664  .00007692  00000-0  50062-3 0  9993","EPOCH":"2023-02-12T08:55:34.461696","MEAN_MOTION_DDOT":"0.0000000000000","INCLINATION":"53.2156","TIME_SYSTEM":"UTC","GP_ID":"225237232","PERIAPSIS":"538.856","MEAN_MOTION":"15.08855203","ARG_OF_PERICENTER":"81.8513","EPHEMERIS_TYPE":"0","CLASSIFICATION_TYPE":"U","PERIOD":"95.437","REV_AT_EPOCH":"3650","BSTAR":"0.00050062000000","ELEMENT_SET_NO":"999","LAUNCH_DATE":"2022-06-17","CENTER_NAME":"EARTH","NORAD_CAT_ID":"52842","MEAN_MOTION_DOT":"0.00007692","DECAY_DATE":null,"REF_FRAME":"TEME","OBJECT_TYPE":"PAYLOAD"},{"NORAD_CAT_ID":"52843","MEAN_MOTION_DOT":"-0.00001155","LAUNCH_DATE":"2022-06-17","CENTER_NAME":"EARTH","OBJECT_TYPE":"PAYLOAD","REF_FRAME":"TEME","DECAY_DATE":null,"BSTAR":"-0.00005444700000","REV_AT_EPOCH":"3708","PERIOD":"95.438","ELEMENT_SET_NO":"999","GP_ID":"225274584","TIME_SYSTEM":"UTC","INCLINATION":"53.2179","CLASSIFICATION_TYPE":"U","ARG_OF_PERICENTER":"75.9540","EPHEMERIS_TYPE":"0","MEAN_MOTION":"15.08834787","PERIAPSIS":"538.369","TLE_LINE1":"1 52843U 22062P   23043.93866187 -.00001155  00000-0 -54447-4 0  9996","MEAN_MOTION_DDOT":"0.0000000000000","EPOCH":"2023-02-12T22:31:40.385568","RA_OF_ASC_NODE":"25.3740","ECCENTRICITY":"0.00020120","APOAPSIS":"541.153","TLE_LINE2":"2 52843  53.2179  25.3740 0002012  75.9540 284.1676 15.08834787 37080","FILE":"3788082","COUNTRY_CODE":"US","OBJECT_NAME":"STARLINK-4188","SEMIMAJOR_AXIS":"6917.896","RCS_SIZE":"LARGE","OBJECT_ID":"2022-062P","MEAN_ELEMENT_THEORY":"SGP4","MEAN_ANOMALY":"284.1676","SITE":"AFETR"},{"RA_OF_ASC_NODE":"25.3069","ECCENTRICITY":"0.00011980","SEMIMAJOR_AXIS":"6917.894","TLE_LINE2":"2 52844  53.2159  25.3069 0001198  80.7015 279.4113 15.08835525 37082","APOAPSIS":"540.588","OBJECT_NAME":"STARLINK-4208","COUNTRY_CODE":"US","FILE":"3788080","OBJECT_ID":"2022-062Q","RCS_SIZE":"LARGE","SITE":"AFETR","MEAN_ANOMALY":"279.4113","MEAN_ELEMENT_THEORY":"SGP4","REF_FRAME":"TEME","DECAY_DATE":null,"OBJECT_TYPE":"PAYLOAD","MEAN_MOTION_DOT":"-0.00001735","NORAD_CAT_ID":"52844","LAUNCH_DATE":"2022-06-17","CENTER_NAME":"EARTH","ELEMENT_SET_NO":"999","REV_AT_EPOCH":"3708","BSTAR":"-0.00009099000000","PERIOD":"95.438","EPHEMERIS_TYPE":"0","ARG_OF_PERICENTER":"80.7015","CLASSIFICATION_TYPE":"U","PERIAPSIS":"538.930","MEAN_MOTION":"15.08835525","GP_ID":"225274559","TIME_SYSTEM":"UTC","INCLINATION":"53.2159","MEAN_MOTION_DDOT":"0.0000000000000","EPOCH":"2023-02-12T22:52:51.718368","TLE_LINE1":"1 52844U 22062Q   23043.95337637 -.00001735  00000-0 -90990-4 0  9999"}];
